OBJECT_NAME,OBJECT_ID,EPOCH,MEAN_MOTION,ECCENTRICITY,INCLINATION,RA_OF_ASC_NODE,ARG_OF_PERICENTER,MEAN_ANOMALY,EPHEMERIS_TYPE,CLASSIFICATION_TYPE,NORAD_CAT_ID,ELEMENT_SET_NO,REV_AT_EPOCH,BSTAR,MEAN_MOTION_DOT,MEAN_MOTION_DDOT
HAWK-5A,2022-057AB,2026-06-27T21:05:12.959808,15.51762808,.00047484,97.6612,338.4193,43.5261,316.6364,0,U,52757,999,22800,.30057137E-3,.17849E-3,0
HAWK-6B,2023-011A,2026-06-27T17:46:23.331648,15.23022975,.00014049,40.4994,290.5151,116.6400,243.4553,0,U,55324,999,18945,.18823154E-3,.4329E-4,0
HAWK-6C,2023-011C,2026-06-27T17:45:28.820160,15.23021235,.00020025,40.4981,287.3565,92.0316,268.0723,0,U,55326,999,18946,.18351775E-3,.4216E-4,0
HAWK-6A,2023-011D,2026-06-27T17:45:32.044608,15.23021081,.00015712,40.4990,288.9819,86.1482,273.9507,0,U,55327,999,18946,.18910235E-3,.435E-4,0
HAWK-7A,2023-054P,2026-06-27T22:04:43.296384,15.27468332,.00034382,97.2695,65.9846,32.7509,327.3943,0,U,56191,999,17866,.21028051E-3,.558E-4,0
HAWK-7B,2023-054R,2026-06-27T22:04:37.158528,15.27466664,.00030738,97.2722,64.2524,49.2440,310.9066,0,U,56193,999,17866,.20596858E-3,.5464E-4,0
HAWK-7C,2023-054Y,2026-06-27T22:04:27.040224,15.27466747,.00028793,97.2699,65.0176,39.4469,320.6979,0,U,56200,999,17866,.20540354E-3,.5449E-4,0
