HAWK-5A                 
1 52757U 22057AB  26178.87862222  .00017849  00000+0  30057-3 0  9999
2 52757  97.6612 338.4193 0004748  43.5261 316.6364 15.51762808228008
HAWK-6B                 
1 55324U 23011A   26178.74054782  .00004329  00000+0  18823-3 0  9999
2 55324  40.4994 290.5151 0001404 116.6400 243.4553 15.23022975189450
HAWK-6C                 
1 55326U 23011C   26178.73991690  .00004216  00000+0  18352-3 0  9990
2 55326  40.4981 287.3565 0002002  92.0316 268.0723 15.23021235189460
HAWK-6A                 
1 55327U 23011D   26178.73995422  .00004350  00000+0  18910-3 0  9997
2 55327  40.4990 288.9819 0001571  86.1482 273.9507 15.23021081189462
HAWK-7A                 
1 56191U 23054P   26178.91994556  .00005580  00000+0  21028-3 0  9991
2 56191  97.2695  65.9846 0003438  32.7509 327.3943 15.27468332178664
HAWK-7B                 
1 56193U 23054R   26178.91987452  .00005464  00000+0  20597-3 0  9991
2 56193  97.2722  64.2524 0003073  49.2440 310.9066 15.27466664178664
HAWK-7C                 
1 56200U 23054Y   26178.91975741  .00005449  00000+0  20540-3 0  9999
2 56200  97.2699  65.0176 0002879  39.4469 320.6979 15.27466747178666
